0 SL-8 DEB
1 24752U 91006C   13283.43734745  .00000295  00000-0  27002-3 0   193
2 24752 082.9190 279.4054 0025606 083.4196 070.4059 13.79758030912271
0 SL-8 DEB
1 24752U 91006C   13285.95035988  .00000269  00000-0  24484-3 0   209
2 24752 082.9194 277.5233 0025544 077.2210 311.9992 13.79759346912610
0 SL-8 DEB
1 24752U 91006C   13291.41390822  .00000306  00000-0  28055-3 0   219
2 24752 082.9169 273.4255 0025455 062.3610 089.6994 13.79762128913378
0 SL-8 DEB
1 24752U 91006C   13293.92730910  .00000355  00000-0  32814-3 0   226
2 24752 082.9199 271.5452 0025472 055.6998 333.7258 13.79763597913717
0 SL-8 DEB
1 24752U 91006C   13295.68618119  .00000385  00000-0  35643-3 0   234
2 24752 082.9208 270.2289 0025423 051.0959 069.9681 13.79764590913964
